H1 CPF  1  HTS 2022  5  9 12  6291 larets           NONE
H2  0304206 5557    27944 2022 05 09  0  0  0 2022 05 14  0  0  0   180 1 1  0 0 0
H5  0.0560 
H9 
10 0 59710  21960.00000  0      44889.351   -2033322.101    6745940.973
10 0 59710  22140.00000  0    -658055.623    -882664.469    6959961.215
10 0 59710  22320.00000  0   -1306157.488     317898.922    6918501.733
10 0 59710  22500.00000  0   -1875110.804    1522862.418    6623212.165
10 0 59710  22680.00000  0   -2344709.202    2686012.657    6085010.812
10 0 59710  22860.00000  0   -2699565.371    3762210.118    5323685.397
10 0 59710  23040.00000  0   -2929616.926    4709157.002    4367183.360
10 0 59710  23220.00000  0   -3030402.554    5489088.496    3250603.532
10 0 59710  23400.00000  0   -3003093.544    6070314.923    2014911.312
10 0 59710  23580.00000  0   -2854279.396    6428539.865     705421.890
10 0 59710  23760.00000  0   -2595517.847    6547893.211    -629889.404
10 0 59710  23940.00000  0   -2242672.700    6421627.019   -1942185.616
10 0 59710  24120.00000  0   -1815070.622    6052427.632   -3183600.458
10 0 59710  24300.00000  0   -1334522.219    5452328.918   -4309001.419
10 0 59710  24480.00000  0    -824271.033    4642257.815   -5277614.611
10 0 59710  24660.00000  0    -307921.025    3651242.009   -6054458.869
10 0 59710  24840.00000  0     191611.208    2515322.395   -6611548.911
10 0 59710  25020.00000  0     653073.520    1276217.687   -6928831.972
10 0 59710  25200.00000  0    1057746.313     -20196.931   -6994847.792
10 0 59710  25380.00000  0    1390176.213   -1325552.919   -6807108.662
10 0 59710  25560.00000  0    1638752.138   -2590743.887   -6372192.285
10 0 59710  25740.00000  0    1796110.534   -3767724.386   -5705554.466
10 0 59710  25920.00000  0    1859358.029   -4811317.006   -4831056.525
10 0 59710  26100.00000  0    1830100.283   -5680962.443   -3780192.255
10 0 59710  26280.00000  0    1714273.036   -6342345.991   -2591031.303
10 0 59710  26460.00000  0    1521774.767   -6768832.966   -1306889.822
10 0 59710  26640.00000  0    1265914.891   -6942630.870      25237.370
10 0 59710  26820.00000  0     962699.155   -6855608.908    1356426.245
10 0 59710  27000.00000  0     629987.078   -6509718.724    2637678.618
10 0 59710  27180.00000  0     286565.340   -5916983.339    3821800.409
10 0 59710  27360.00000  0     -48815.254   -5099048.608    4865202.749
10 0 59710  27540.00000  0    -358383.887   -4086333.555    5729544.138
10 0 59710  27720.00000  0    -626223.563   -2916824.151    6383151.127
10 0 59710  27900.00000  0    -839032.951   -1634572.420    6802161.172
10 0 59710  28080.00000  0    -986743.862    -287983.902    6971355.898
10 0 59710  28260.00000  0   -1062971.778    1072042.656    6884681.935
10 0 59710  28440.00000  0   -1065281.433    2394059.632    6545443.302
10 0 59710  28620.00000  0    -995257.636    3628028.305    5966166.276
10 0 59710  28800.00000  0    -858383.632    4727226.148    5168143.457
10 0 59710  28980.00000  0    -663731.701    5650039.883    4180667.692
10 0 59710  29160.00000  0    -423479.135    6361577.858    3039970.582
10 0 59710  29340.00000  0    -152271.935    6835034.684    1787899.908
10 0 59710  29520.00000  0     133538.492    7052747.626     470363.852
10 0 59710  29700.00000  0     416750.252    7006875.277    -864387.100
10 0 59710  29880.00000  0     680208.760    6699673.489   -2167568.409
10 0 59710  30060.00000  0     907695.537    6143350.853   -3391677.957
10 0 59710  30240.00000  0    1084765.859    5359525.931   -4492238.523
10 0 59710  30420.00000  0    1199497.720    4378319.264   -5429399.154
10 0 59710  30600.00000  0    1243115.626    3237132.539   -6169333.488
10 0 59710  30780.00000  0    1210461.392    1979181.717   -6685395.528
10 0 59710  30960.00000  0    1100295.350     651850.686   -6959006.243
10 0 59710  31140.00000  0     915420.338    -695069.220   -6980264.972
10 0 59710  31320.00000  0     662623.380   -2011203.758   -6748278.037
10 0 59710  31500.00000  0     352437.776   -3247426.332   -6271202.869
10 0 59710  31680.00000  0      -1269.362   -4357655.371   -5566014.820
10 0 59710  31860.00000  0    -381875.403   -5300570.001   -4657978.506
10 0 59710  32040.00000  0    -770728.525   -6041183.024   -3579828.122
10 0 59710  32220.00000  0   -1148000.242   -6552211.237   -2370660.080
10 0 59710  32400.00000  0   -1493628.533   -6815174.666   -1074558.998
10 0 59710  32580.00000  0   -1788307.656   -6821162.516     261007.229
10 0 59710  32760.00000  0   -2014473.680   -6571208.866    1586962.600
10 0 59710  32940.00000  0   -2157233.261   -6076247.804    2854488.996
10 0 59710  33120.00000  0   -2205180.858   -5356641.609    4016895.951
10 0 59710  33300.00000  0   -2151056.807   -4441306.355    5031400.166
10 0 59710  33480.00000  0   -1992214.546   -3366490.089    5860734.540
10 0 59710  33660.00000  0   -1730874.810   -2174265.836    6474524.500
10 0 59710  33840.00000  0   -1374152.406    -910821.837    6850378.069
10 0 59710  34020.00000  0    -933863.472     375372.042    6974667.876
10 0 59710  34200.00000  0    -426124.177    1635449.131    6842988.483
10 0 59710  34380.00000  0     129250.757    2822014.858    6460291.460
10 0 59710  34560.00000  0     709528.772    3890938.536    5840692.462
10 0 59710  34740.00000  0    1289987.933    4803008.047    5006959.684
10 0 59710  34920.00000  0    1844961.989    5525393.522    3989693.645
10 0 59710  35100.00000  0    2348961.914    6032862.634    2826219.346
10 0 59710  35280.00000  0    2777828.141    6308702.832    1559218.490
10 0 59710  35460.00000  0    3109854.057    6345296.189     235137.311
10 0 59710  35640.00000  0    3326821.979    6144311.909   -1097553.012
10 0 59710  35820.00000  0    3414902.712    5716515.922   -2390167.627
10 0 59710  36000.00000  0    3365373.669    5081210.036   -3595615.339
10 0 59710  36180.00000  0    3175118.236    4265331.123   -4670124.573
10 0 59710  36360.00000  0    2846883.881    3302266.058   -5574811.400
10 0 59710  36540.00000  0    2389296.211    2230450.826   -6277037.765
10 0 59710  36720.00000  0    1816634.244    1091819.441   -6751521.186
10 0 59710  36900.00000  0    1148381.457     -69827.283   -6981172.179
10 0 59710  37080.00000  0     408570.732   -1210473.549   -6957657.275
10 0 59710  37260.00000  0    -375060.491   -2287513.713   -6681677.590
10 0 59710  37440.00000  0   -1172076.558   -3261301.627   -6162966.664
10 0 59710  37620.00000  0   -1950490.791   -4096591.951   -5420003.077
10 0 59710  37800.00000  0   -2678019.482   -4763826.892   -4479432.647
10 0 59710  37980.00000  0   -3323408.496   -5240228.364   -3375198.788
10 0 59710  38160.00000  0   -3857778.431   -5510641.657   -2147384.685
10 0 59710  38340.00000  0   -4255928.435   -5568087.554    -840795.477
10 0 59710  38520.00000  0   -4497532.069   -5413985.215     496681.126
10 0 59710  38700.00000  0   -4568154.676   -5058021.370    1815872.805
10 0 59710  38880.00000  0   -4460031.644   -4517660.863    3068198.634
10 0 59710  39060.00000  0   -4172559.903   -3817320.340    4207528.694
10 0 59710  39240.00000  0   -3712477.401   -2987252.907    5191940.212
10 0 59710  39420.00000  0   -3093720.843   -2062203.676    5985288.619
10 0 59710  39600.00000  0   -2336977.750   -1079916.256    6558533.132
10 0 59710  39780.00000  0   -1468954.542     -79556.584    6890781.082
10 0 59710  39960.00000  0    -521392.530     899874.986    6970010.095
10 0 59710  40140.00000  0     470116.728    1821072.240    6793466.704
10 0 59710  40320.00000  0    1467482.339    2649850.328    6367742.700
10 0 59710  40500.00000  0    2431585.818    3356418.684    5708524.263
10 0 59710  40680.00000  0    3323822.519    3916461.501    4840027.795
10 0 59710  40860.00000  0    4107661.531    4311990.440    3794126.677
10 0 59710  41040.00000  0    4750157.881    4531935.131    2609195.538
10 0 59710  41220.00000  0    5223359.518    4572448.805    1328696.828
10 0 59710  41400.00000  0    5505529.728    4436907.168       -437.123
10 0 59710  41580.00000  0    5582127.950    4135601.079   -1329563.676
10 0 59710  41760.00000  0    5446491.610    3685138.509   -2610149.922
10 0 59710  41940.00000  0    5100192.840    3107591.608   -3795569.708
10 0 59710  42120.00000  0    4553057.474    2429440.472   -4842803.765
10 0 59710  42300.00000  0    3822850.919    1680367.083   -5713976.897
10 0 59710  42480.00000  0    2934655.764     891962.395   -6377673.086
10 0 59710  42660.00000  0    1919976.696      96411.033   -6809998.455
10 0 59710  42840.00000  0     815615.791    -674794.479   -6995371.263
10 0 59710  43020.00000  0    -337642.492   -1392067.962   -6927036.597
10 0 59710  43200.00000  0   -1496499.633   -2028833.281   -6607295.350
10 0 59710  43380.00000  0   -2616722.952   -2562489.064   -6047452.432
10 0 59710  43560.00000  0   -3654796.443   -2975208.943   -5267476.589
10 0 59710  43740.00000  0   -4569599.200   -3254554.475   -4295373.711
10 0 59710  43920.00000  0   -5324056.749   -3393876.063   -3166264.045
10 0 59710  44100.00000  0   -5886693.236   -3392477.636   -1921176.780
10 0 59710  44280.00000  0   -6233010.747   -3255531.101    -605587.603
10 0 59710  44460.00000  0   -6346618.205   -2993735.689     732253.221
10 0 59710  44640.00000  0   -6220042.916   -2622732.514    2043137.513
10 0 59710  44820.00000  0   -5855165.655   -2162298.927    3278780.734
10 0 59710  45000.00000  0   -5263252.090   -1635365.368    4393670.078
10 0 59710  45180.00000  0   -4464578.140   -1066908.072    5346795.757
10 0 59710  45360.00000  0   -3487676.520    -482780.650    6103179.376
10 0 59710  45540.00000  0   -2368252.899      91454.756    6635154.367
10 0 59710  45720.00000  0   -1147815.295     631642.814    6923351.705
10 0 59710  45900.00000  0     127912.500    1116044.057    6957365.884
10 0 59710  46080.00000  0    1410728.919    1526205.874    6736097.351
10 0 59710  46260.00000  0    2651788.008    1847665.136    6267769.456
99
